{
  "schema": "int-temerity-real-tle-snapshot/v1",
  "source": "celestrak",
  "group": "STARLINK",
  "format": "celestrak-gp-json",
  "source_url": "https://celestrak.org/NORAD/elements/gp.php?NAME=STARLINK&FORMAT=JSON",
  "downloaded_at": "2026-06-26T09:52:00.103Z",
  "generated_at": "2026-06-26T09:52:00.244Z",
  "fingerprint": "ba85ff7c",
  "shell_id": "starlink-real-43deg-490km",
  "catalog_count": 10658,
  "shell_count": 3264,
  "selected_count": 64,
  "mean_altitude_km": 490.15,
  "mean_inclination_deg": 43.002,
  "mean_mean_motion_rev_per_day": 15.27590899,
  "layout": {
    "planes": 8,
    "satellites_per_plane": 8,
    "selection_strategy": "largest-shell-raan-clusters-even-slot-sampling",
    "raan_cluster_threshold_deg": 1.5
  },
  "satellites": [
    {
      "satellite_id": "P07-S07",
      "norad_id": 66347,
      "satellite_name": "STARLINK-35438",
      "cospar_id": "2025-253AE",
      "shell_id": "starlink-real-43deg-490km",
      "plane_id": 6,
      "slot_id": 6,
      "epoch": "2026-06-25T19:27:00.173088",
      "inclination": 43.0013,
      "raan": 321.58889999999997,
      "eccentricity": 0.0001103,
      "argument_of_perigee": 255.26009999999997,
      "mean_anomaly": 104.81279999999998,
      "mean_motion": 15.27595237,
      "bstar": 0.0005089,
      "status": "active",
      "raw_omm": {
        "OBJECT_NAME": "STARLINK-35438",
        "OBJECT_ID": "2025-253AE",
        "EPOCH": "2026-06-25T19:27:00.173088",
        "MEAN_MOTION": 15.27595237,
        "ECCENTRICITY": 0.0001103,
        "INCLINATION": 43.0013,
        "RA_OF_ASC_NODE": 321.5889,
        "ARG_OF_PERICENTER": 255.2601,
        "MEAN_ANOMALY": 104.8128,
        "EPHEMERIS_TYPE": 0,
        "CLASSIFICATION_TYPE": "U",
        "NORAD_CAT_ID": 66347,
        "ELEMENT_SET_NO": 999,
        "REV_AT_EPOCH": 3678,
        "BSTAR": 0.0005089,
        "MEAN_MOTION_DOT": 0.00013774,
        "MEAN_MOTION_DDOT": 0
      },
      "source": "celestrak",
      "source_url": "https://celestrak.org/NORAD/elements/gp.php?NAME=STARLINK&FORMAT=JSON",
      "catalog_fingerprint": "ba85ff7c"
    },
    {
      "satellite_id": "P07-S08",
      "norad_id": 66341,
      "satellite_name": "STARLINK-35522",
      "cospar_id": "2025-253Y",
      "shell_id": "starlink-real-43deg-490km",
      "plane_id": 6,
      "slot_id": 7,
      "epoch": "2026-06-25T18:42:48.411072",
      "inclination": 43.0037,
      "raan": 322.2279,
      "eccentricity": 0.0000904,
      "argument_of_perigee": 293.6575,
      "mean_anomaly": 66.41809999999998,
      "mean_motion": 15.27604969,
      "bstar": 0.00082933,
      "status": "active",
      "raw_omm": {
        "OBJECT_NAME": "STARLINK-35522",
        "OBJECT_ID": "2025-253Y",
        "EPOCH": "2026-06-25T18:42:48.411072",
        "MEAN_MOTION": 15.27604969,
        "ECCENTRICITY": 0.0000904,
        "INCLINATION": 43.0037,
        "RA_OF_ASC_NODE": 322.2279,
        "ARG_OF_PERICENTER": 293.6575,
        "MEAN_ANOMALY": 66.4181,
        "EPHEMERIS_TYPE": 0,
        "CLASSIFICATION_TYPE": "U",
        "NORAD_CAT_ID": 66341,
        "ELEMENT_SET_NO": 999,
        "REV_AT_EPOCH": 3677,
        "BSTAR": 0.00082933,
        "MEAN_MOTION_DOT": 0.00022646,
        "MEAN_MOTION_DDOT": 0
      },
      "source": "celestrak",
      "source_url": "https://celestrak.org/NORAD/elements/gp.php?NAME=STARLINK&FORMAT=JSON",
      "catalog_fingerprint": "ba85ff7c"
    },
    {
      "satellite_id": "P08-S01",
      "norad_id": 61850,
      "satellite_name": "STARLINK-32330",
      "cospar_id": "2024-202F",
      "shell_id": "starlink-real-43deg-490km",
      "plane_id": 7,
      "slot_id": 0,
      "epoch": "2026-06-26T04:15:58.897728",
      "inclination": 43.0043,
      "raan": 344.9534,
      "eccentricity": 0.000276,
      "argument_of_perigee": 267.96659999999997,
      "mean_anomaly": 92.08690000000001,
      "mean_motion": 15.27570408,
      "bstar": -0.000020817,
      "status": "active",
      "raw_omm": {
        "OBJECT_NAME": "STARLINK-32330",
        "OBJECT_ID": "2024-202F",
        "EPOCH": "2026-06-26T04:15:58.897728",
        "MEAN_MOTION": 15.27570408,
        "ECCENTRICITY": 0.000276,
        "INCLINATION": 43.0043,
        "RA_OF_ASC_NODE": 344.9534,
        "ARG_OF_PERICENTER": 267.9666,
        "MEAN_ANOMALY": 92.0869,
        "EPHEMERIS_TYPE": 0,
        "CLASSIFICATION_TYPE": "U",
        "NORAD_CAT_ID": 61850,
        "ELEMENT_SET_NO": 999,
        "REV_AT_EPOCH": 9193,
        "BSTAR": -0.000020817,
        "MEAN_MOTION_DOT": -0.00000835,
        "MEAN_MOTION_DDOT": 0
      },
      "source": "celestrak",
      "source_url": "https://celestrak.org/NORAD/elements/gp.php?NAME=STARLINK&FORMAT=JSON",
      "catalog_fingerprint": "ba85ff7c"
    },
    {
      "satellite_id": "P08-S02",
      "norad_id": 67432,
      "satellite_name": "STARLINK-36460",
      "cospar_id": "2026-005AE",
      "shell_id": "starlink-real-43deg-490km",
      "plane_id": 7,
      "slot_id": 1,
      "epoch": "2026-06-26T04:18:00.765792",
      "inclination": 43.0018,
      "raan": 345.70859999999993,
      "eccentricity": 0.0001716,
      "argument_of_perigee": 281.6757,
      "mean_anomaly": 78.3902,
      "mean_motion": 15.27601693,
      "bstar": 0.00056534,
      "status": "active",
      "raw_omm": {
        "OBJECT_NAME": "STARLINK-36460",
        "OBJECT_ID": "2026-005AE",
        "EPOCH": "2026-06-26T04:18:00.765792",
        "MEAN_MOTION": 15.27601693,
        "ECCENTRICITY": 0.0001716,
        "INCLINATION": 43.0018,
        "RA_OF_ASC_NODE": 345.7086,
        "ARG_OF_PERICENTER": 281.6757,
        "MEAN_ANOMALY": 78.3902,
        "EPHEMERIS_TYPE": 0,
        "CLASSIFICATION_TYPE": "U",
        "NORAD_CAT_ID": 67432,
        "ELEMENT_SET_NO": 999,
        "REV_AT_EPOCH": 2527,
        "BSTAR": 0.00056534,
        "MEAN_MOTION_DOT": 0.00015337,
        "MEAN_MOTION_DDOT": 0
      },
      "source": "celestrak",
      "source_url": "https://celestrak.org/NORAD/elements/gp.php?NAME=STARLINK&FORMAT=JSON",
      "catalog_fingerprint": "ba85ff7c"
    },
    {
      "satellite_id": "P08-S03",
      "norad_id": 67426,
      "satellite_name": "STARLINK-36146",
      "cospar_id": "2026-005Y",
      "shell_id": "starlink-real-43deg-490km",
      "plane_id": 7,
      "slot_id": 2,
      "epoch": "2026-06-26T04:14:18.938112",
      "inclination": 43.0032,
      "raan": 345.6953,
      "eccentricity": 0.0001514,
      "argument_of_perigee": 257.4712999999999,
      "mean_anomaly": 102.59699999999998,
      "mean_motion": 15.27589649,
      "bstar": 0.00064596,
      "status": "active",
      "raw_omm": {
        "OBJECT_NAME": "STARLINK-36146",
        "OBJECT_ID": "2026-005Y",
        "EPOCH": "2026-06-26T04:14:18.938112",
        "MEAN_MOTION": 15.27589649,
        "ECCENTRICITY": 0.0001514,
        "INCLINATION": 43.0032,
        "RA_OF_ASC_NODE": 345.6953,
        "ARG_OF_PERICENTER": 257.4713,
        "MEAN_ANOMALY": 102.597,
        "EPHEMERIS_TYPE": 0,
        "CLASSIFICATION_TYPE": "U",
        "NORAD_CAT_ID": 67426,
        "ELEMENT_SET_NO": 999,
        "REV_AT_EPOCH": 2527,
        "BSTAR": 0.00064596,
        "MEAN_MOTION_DOT": 0.00017561,
        "MEAN_MOTION_DDOT": 0
      },
      "source": "celestrak",
      "source_url": "https://celestrak.org/NORAD/elements/gp.php?NAME=STARLINK&FORMAT=JSON",
      "catalog_fingerprint": "ba85ff7c"
    },
    {
      "satellite_id": "P08-S04",
      "norad_id": 57379,
      "satellite_name": "STARLINK-6361",
      "cospar_id": "2023-099BD",
      "shell_id": "starlink-real-43deg-490km",
      "plane_id": 7,
      "slot_id": 3,
      "epoch": "2026-06-26T04:23:29.745888",
      "inclination": 43.004,
      "raan": 345.4107,
      "eccentricity": 0.0001122,
      "argument_of_perigee": 277.04089999999997,
      "mean_anomaly": 83.0315,
      "mean_motion": 15.27576127,
      "bstar": -0.0000091284,
      "status": "active",
      "raw_omm": {
        "OBJECT_NAME": "STARLINK-6361",
        "OBJECT_ID": "2023-099BD",
        "EPOCH": "2026-06-26T04:23:29.745888",
        "MEAN_MOTION": 15.27576127,
        "ECCENTRICITY": 0.0001122,
        "INCLINATION": 43.004,
        "RA_OF_ASC_NODE": 345.4107,
        "ARG_OF_PERICENTER": 277.0409,
        "MEAN_ANOMALY": 83.0315,
        "EPHEMERIS_TYPE": 0,
        "CLASSIFICATION_TYPE": "U",
        "NORAD_CAT_ID": 57379,
        "ELEMENT_SET_NO": 999,
        "REV_AT_EPOCH": 16283,
        "BSTAR": -0.0000091284,
        "MEAN_MOTION_DOT": -0.00000513,
        "MEAN_MOTION_DDOT": 0
      },
      "source": "celestrak",
      "source_url": "https://celestrak.org/NORAD/elements/gp.php?NAME=STARLINK&FORMAT=JSON",
      "catalog_fingerprint": "ba85ff7c"
    }
  ]
}