STARLINK-6361           
1 57379U 23099BD  26177.18298317 -.00000513  00000+0 -91284-5 0  9995
2 57379  43.0040 345.4107 0001122 277.0409  83.0315 15.27576127162836
STARLINK-32330          
1 61850U 24202F   26177.17776502 -.00000835  00000+0 -20817-4 0  9997
2 61850  43.0043 344.9534 0002760 267.9666  92.0869 15.27570408 91930
STARLINK-35522          
1 66341U 25253Y   26176.77972698  .00022646  00000+0  82933-3 0  9991
2 66341  43.0037 322.2279 0000904 293.6575  66.4181 15.27604969 36774
STARLINK-35438          
1 66347U 25253AE  26176.81041867  .00013774  00000+0  50890-3 0  9996
2 66347  43.0013 321.5889 0001103 255.2601 104.8128 15.27595237 36785
STARLINK-36146          
1 67426U 26005Y   26177.17660808  .00017561  00000+0  64596-3 0  9999
2 67426  43.0032 345.6953 0001514 257.4713 102.5970 15.27589649 25270
STARLINK-36460          
1 67432U 26005AE  26177.17917553  .00015337  00000+0  56534-3 0  9990
2 67432  43.0018 345.7086 0001716 281.6757  78.3902 15.27601693 25279
